[{"OBJECT_NAME":"O3B MPOWER F9","OBJECT_ID":"2025-153A","EPOCH":"2026-04-26T09:42:06.982272","MEAN_MOTION":5.00116073,"ECCENTRICITY":0.00055624,"INCLINATION":0.054,"RA_OF_ASC_NODE":15.2057,"ARG_OF_PERICENTER":45.203,"MEAN_ANOMALY":299.6452,"EPHEMERIS_TYPE":0,"CLASSIFICATION_TYPE":"U","NORAD_CAT_ID":64866,"ELEMENT_SET_NO":999,"REV_AT_EPOCH":1696,"BSTAR":0,"MEAN_MOTION_DOT":-2.7e-7,"MEAN_MOTION_DDOT":0},{"OBJECT_NAME":"O3B MPOWER F10","OBJECT_ID":"2025-153B","EPOCH":"2026-04-26T08:53:00.583296","MEAN_MOTION":5.0011494,"ECCENTRICITY":0.000284,"INCLINATION":0.0539,"RA_OF_ASC_NODE":10.3193,"ARG_OF_PERICENTER":262.4804,"MEAN_ANOMALY":87.1662,"EPHEMERIS_TYPE":0,"CLASSIFICATION_TYPE":"U","NORAD_CAT_ID":64867,"ELEMENT_SET_NO":999,"REV_AT_EPOCH":1944,"BSTAR":0,"MEAN_MOTION_DOT":-2.7e-7,"MEAN_MOTION_DDOT":0}]
