O3B MPOWER F9           
1 64866U 25153A   26116.40424748 -.00000027  00000+0  00000+0 0  9993
2 64866   0.0540  15.2057 0005562  45.2030 299.6452  5.00116073 16965
O3B MPOWER F10          
1 64867U 25153B   26116.37014564 -.00000027  00000+0  00000+0 0  9991
2 64867   0.0539  10.3193 0002840 262.4804  87.1662  5.00114940 19449
